{
  "type": "FeatureCollection",
  "features": [
    {
      "type": "Feature",
      "properties": {
        "norad_id": 67019,
        "name": "STARLINK-35688",
        "group": "last-30-days",
        "lat": 65.76245124803097,
        "lon": -11.589507418354227,
        "alt_km": 309.18635039678156,
        "timestamp": "2025-12-22T20:43:44.568272+00:00",
        "meta_object_name": "STARLINK-35688",
        "meta_object_id": "2025-293S",
        "meta_epoch": "2025-12-22T14:00:01.999872",
        "meta_mean_motion": 15.86932398,
        "meta_eccentricity": 0.0003943,
        "meta_inclination": 69.9927,
        "meta_ra_of_asc_node": 295.1835,
        "meta_arg_of_pericenter": 265.528,
        "meta_mean_anomaly": 9.8973,
        "meta_ephemeris_type": 0,
        "meta_classification_type": "U",
        "meta_norad_cat_id": 67019,
        "meta_element_set_no": 999,
        "meta_rev_at_epoch": 188,
        "meta_bstar": -0.0072045201,
        "meta_mean_motion_dot": -0.01629961,
        "meta_mean_motion_ddot": 0,
        "tle_line1": "1 67019U 25293S   25356.58335648 -.01629961  00000+0 -72045-2 0  9992",
        "tle_line2": "2 67019  69.9927 295.1835 0003943 265.5280   9.8973 15.86932398  1884"
      },
      "geometry": {
        "type": "Point",
        "coordinates": [
          -11.589507418354227,
          65.76245124803097
        ]
      }
    },
    {
      "type": "Feature",
      "properties": {
        "norad_id": 67020,
        "name": "STARLINK-36172",
        "group": "last-30-days",
        "lat": 67.2394061281443,
        "lon": -5.3413237106170195,
        "alt_km": 309.1674956404404,
        "timestamp": "2025-12-22T20:43:44.568282+00:00",
        "meta_object_name": "STARLINK-36172",
        "meta_object_id": "2025-293T",
        "meta_epoch": "2025-12-22T14:00:01.999872",
        "meta_mean_motion": 15.86912672,
        "meta_eccentricity": 0.00039909,
        "meta_inclination": 69.9926,
        "meta_ra_of_asc_node": 295.1802,
        "meta_arg_of_pericenter": 264.5478,
        "meta_mean_anomaly": 13.7929,
        "meta_ephemeris_type": 0,
        "meta_classification_type": "U",
        "meta_norad_cat_id": 67020,
        "meta_element_set_no": 999,
        "meta_rev_at_epoch": 180,
        "meta_bstar": -0.0072462769,
        "meta_mean_motion_dot": -0.01636877,
        "meta_mean_motion_ddot": 0,
        "tle_line1": "1 67020U 25293T   25356.58335648 -.01636877  00000+0 -72463-2 0  9992",
        "tle_line2": "2 67020  69.9926 295.1802 0003990 264.5478  13.7929 15.86912672  1809"
      },
      "geometry": {
        "type": "Point",
        "coordinates": [
          -5.3413237106170195,
          67.2394061281443
        ]
      }
    },
    {
      "type": "Feature",
      "properties": {
        "norad_id": 67021,
        "name": "STARLINK-36184",
        "group": "last-30-days",
        "lat": 68.35870093265153,
        "lon": 1.062281540018485,
        "alt_km": 309.14513650182107,
        "timestamp": "2025-12-22T20:43:44.568294+00:00",
        "meta_object_name": "STARLINK-36184",
        "meta_object_id": "2025-293U",
        "meta_epoch": "2025-12-22T14:00:01.999872",
        "meta_mean_motion": 15.86889618,
        "meta_eccentricity": 0.00040015,
        "meta_inclination": 69.9926,
        "meta_ra_of_asc_node": 295.1768,
        "meta_arg_of_pericenter": 264.1108,
        "meta_mean_anomaly": 16.9158,
        "meta_ephemeris_type": 0,
        "meta_classification_type": "U",
        "meta_norad_cat_id": 67021,
        "meta_element_set_no": 999,
        "meta_rev_at_epoch": 180,
        "meta_bstar": -0.007250299,
        "meta_mean_motion_dot": -0.01636052,
        "meta_mean_motion_ddot": 0,
        "tle_line1": "1 67021U 25293U   25356.58335648 -.01636052  00000+0 -72503-2 0  9993",
        "tle_line2": "2 67021  69.9926 295.1768 0004001 264.1108  16.9158 15.86889618  1803"
      },
      "geometry": {
        "type": "Point",
        "coordinates": [
          1.062281540018485,
          68.35870093265153
        ]
      }
    },
    {
      "type": "Feature",
      "properties": {
        "norad_id": 67022,
        "name": "STARLINK-36209",
        "group": "last-30-days",
        "lat": 69.31143725183867,
        "lon": 9.142656955351812,
        "alt_km": 309.0582688043487,
        "timestamp": "2025-12-22T20:43:44.568304+00:00",
        "meta_object_name": "STARLINK-36209",
        "meta_object_id": "2025-293V",
        "meta_epoch": "2025-12-22T14:00:01.999872",
        "meta_mean_motion": 15.86861613,
        "meta_eccentricity": 0.00038605,
        "meta_inclination": 69.9924,
        "meta_ra_of_asc_node": 295.1732,
        "meta_arg_of_pericenter": 263.2265,
        "meta_mean_anomaly": 20.8962,
        "meta_ephemeris_type": 0,
        "meta_classification_type": "U",
        "meta_norad_cat_id": 67022,
        "meta_element_set_no": 999,
        "meta_rev_at_epoch": 180,
        "meta_bstar": -0.0073023934,
        "meta_mean_motion_dot": -0.01644154,
        "meta_mean_motion_ddot": 0,
        "tle_line1": "1 67022U 25293V   25356.58335648 -.01644154  00000+0 -73024-2 0  9995",
        "tle_line2": "2 67022  69.9924 295.1732 0003860 263.2265  20.8962 15.86861613  1801"
      },
      "geometry": {
        "type": "Point",
        "coordinates": [
          9.142656955351812,
          69.31143725183867
        ]
      }
    },
    {
      "type": "Feature",
      "properties": {
        "norad_id": 67023,
        "name": "STARLINK-36191",
        "group": "last-30-days",
        "lat": 69.79726254147295,
        "lon": 16.350667551548813,
        "alt_km": 309.0494257475202,
        "timestamp": "2025-12-22T20:43:44.568314+00:00",
        "meta_object_name": "STARLINK-36191",
        "meta_object_id": "2025-293W",
        "meta_epoch": "2025-12-22T14:00:01.999872",
        "meta_mean_motion": 15.86839903,
        "meta_eccentricity": 0.00038425,
        "meta_inclination": 69.9923,
        "meta_ra_of_asc_node": 295.1695,
        "meta_arg_of_pericenter": 262.4575,
        "meta_mean_anomaly": 24.2477,
        "meta_ephemeris_type": 0,
        "meta_classification_type": "U",
        "meta_norad_cat_id": 67023,
        "meta_element_set_no": 999,
        "meta_rev_at_epoch": 169,
        "meta_bstar": -0.0072950112,
        "meta_mean_motion_dot": -0.01641141,
        "meta_mean_motion_ddot": 0,
        "tle_line1": "1 67023U 25293W   25356.58335648 -.01641141  00000+0 -72950-2 0  9996",
        "tle_line2": "2 67023  69.9923 295.1695 0003842 262.4575  24.2477 15.86839903  1697"
      },
      "geometry": {
        "type": "Point",
        "coordinates": [
          16.350667551548813,
          69.79726254147295
        ]
      }
    },
    {
      "type": "Feature",
      "properties": {
        "norad_id": 67024,
        "name": "STARLINK-36192",
        "group": "last-30-days",
        "lat": 69.97873479384221,
        "lon": 24.670026662192885,
        "alt_km": 309.1113391819308,
        "timestamp": "2025-12-22T20:43:44.568327+00:00",
        "meta_object_name": "STARLINK-36192",
        "meta_object_id": "2025-293X",
        "meta_epoch": "2025-12-22T14:00:01.999872",
        "meta_mean_motion": 15.86812015,
        "meta_eccentricity": 0.00038626,
        "meta_inclination": 69.9926,
        "meta_ra_of_asc_node": 295.1666,
        "meta_arg_of_pericenter": 262.5456,
        "meta_mean_anomaly": 27.0497,
        "meta_ephemeris_type": 0,
        "meta_classification_type": "U",
        "meta_norad_cat_id": 67024,
        "meta_element_set_no": 999,
        "meta_rev_at_epoch": 180,
        "meta_bstar": -0.0073067388,
        "meta_mean_motion_dot": -0.0164149,
        "meta_mean_motion_ddot": 0,
        "tle_line1": "1 67024U 25293X   25356.58335648 -.01641490  00000+0 -73067-2 0  9994",
        "tle_line2": "2 67024  69.9926 295.1666 0003862 262.5456  27.0497 15.86812015  1801"
      },
      "geometry": {
        "type": "Point",
        "coordinates": [
          24.670026662192885,
          69.97873479384221
        ]
      }
    },
    {
      "type": "Feature",
      "properties": {
        "norad_id": 67025,
        "name": "STARLINK-36178",
        "group": "last-30-days",
        "lat": 69.83140022603487,
        "lon": 31.58429043818435,
        "alt_km": 309.23322188320435,
        "timestamp": "2025-12-22T20:43:44.568337+00:00",
        "meta_object_name": "STARLINK-36178",
        "meta_object_id": "2025-293Y",
        "meta_epoch": "2025-12-22T14:00:01.999872",
        "meta_mean_motion": 15.86800717,
        "meta_eccentricity": 0.00039685,
        "meta_inclination": 69.9925,
        "meta_ra_of_asc_node": 295.1634,
        "meta_arg_of_pericenter": 264.5938,
        "meta_mean_anomaly": 27.3901,
        "meta_ephemeris_type": 0,
        "meta_classification_type": "U",
        "meta_norad_cat_id": 67025,
        "meta_element_set_no": 999,
        "meta_rev_at_epoch": 180,
        "meta_bstar": -0.0073308733,
        "meta_mean_motion_dot": -0.0164555,
        "meta_mean_motion_ddot": 0,
        "tle_line1": "1 67025U 25293Y   25356.58335648 -.01645550  00000+0 -73309-2 0  9995",
        "tle_line2": "2 67025  69.9925 295.1634 0003968 264.5938  27.3901 15.86800717  1809"
      },
      "geometry": {
        "type": "Point",
        "coordinates": [
          31.58429043818435,
          69.83140022603487
        ]
      }
    }
  ]
}